{"type": "FeatureCollection", "features": [ {"type": "Feature", "properties": {"norad_id": 66810, "name": "STARLINK-36046", "group": "last-30-days", "lat": -37.635126195031546, "lon": 70.86379141362245, "alt_km": 403.9373934367177, "timestamp": "2025-12-22T04:03:37.887789+00:00", "meta": {"OBJECT_NAME": "STARLINK-36046", "OBJECT_ID": "2025-278V", "EPOCH": "2025-12-21T20:00:01.999008", "MEAN_MOTION": 15.56615745, "ECCENTRICITY": 0.0001205, "INCLINATION": 42.9989, "RA_OF_ASC_NODE": 197.0006, "ARG_OF_PERICENTER": 272.1278, "MEAN_ANOMALY": 248.1437, "EPHEMERIS_TYPE": 0, "CLASSIFICATION_TYPE": "U", "NORAD_CAT_ID": 66810, "ELEMENT_SET_NO": 999, "REV_AT_EPOCH": 419, "BSTAR": -0.031295, "MEAN_MOTION_DOT": -0.02042503, "MEAN_MOTION_DDOT": 0}, "tle": {"line1": "1 66810U 25278V   25355.83335647 -.02042503  00000+0 -31295-1 0  9992", "line2": "2 66810  42.9989 197.0006 0001205 272.1278 248.1437 15.56615745  4192"}}, "geometry": {"type": "Point", "coordinates": [70.86379141362245, -37.635126195031546]}}, {"type": "Feature", "properties": {"norad_id": 66811, "name": "STARLINK-36045", "group": "last-30-days", "lat": -38.34772065592733, "lon": 73.11800857659372, "alt_km": 403.8590947939383, "timestamp": "2025-12-22T04:03:37.887800+00:00", "meta": {"OBJECT_NAME": "STARLINK-36045", "OBJECT_ID": "2025-278W", "EPOCH": "2025-12-21T20:00:01.999008", "MEAN_MOTION": 15.56607536, "ECCENTRICITY": 0.0001299, "INCLINATION": 42.9989, "RA_OF_ASC_NODE": 196.9955, "ARG_OF_PERICENTER": 265.5895, "MEAN_ANOMALY": 256.6088, "EPHEMERIS_TYPE": 0, "CLASSIFICATION_TYPE": "U", "NORAD_CAT_ID": 66811, "ELEMENT_SET_NO": 999, "REV_AT_EPOCH": 442, "BSTAR": -0.03125, "MEAN_MOTION_DOT": -0.02039385, "MEAN_MOTION_DDOT": 0}, "tle": {"line1": "1 66811U 25278W   25355.83335647 -.02039385  00000+0 -31250-1 0  9998", "line2": "2 66811  42.9989 196.9955 0001299 265.5895 256.6088 15.56607536  4429"}}, "geometry": {"type": "Point", "coordinates": [73.11800857659372, -38.34772065592733]}}, {"type": "Feature", "properties": {"norad_id": 66812, "name": "STARLINK-36054", "group": "last-30-days", "lat": -39.63664845074393, "lon": 77.75103402592725, "alt_km": 404.0157210628877, "timestamp": "2025-12-22T04:03:37.887810+00:00", "meta": {"OBJECT_NAME": "STARLINK-36054", "OBJECT_ID": "2025-278X", "EPOCH": "2025-12-21T20:00:01.999008", "MEAN_MOTION": 15.56614569, "ECCENTRICITY": 0.0001142, "INCLINATION": 42.9985, "RA_OF_ASC_NODE": 196.986, "ARG_OF_PERICENTER": 268.7834, "MEAN_ANOMALY": 257.2467, "EPHEMERIS_TYPE": 0, "CLASSIFICATION_TYPE": "U", "NORAD_CAT_ID": 66812, "ELEMENT_SET_NO": 999, "REV_AT_EPOCH": 442, "BSTAR": -0.0314, "MEAN_MOTION_DOT": -0.02048478, "MEAN_MOTION_DDOT": 0}, "tle": {"line1": "1 66812U 25278X   25355.83335647 -.02048478  00000+0 -31400-1 0  9999", "line2": "2 66812  42.9985 196.9860 0001142 268.7834 257.2467 15.56614569  4428"}}, "geometry": {"type": "Point", "coordinates": [77.75103402592725, -39.63664845074393]}}, {"type": "Feature", "properties": {"norad_id": 66813, "name": "STARLINK-36042", "group": "last-30-days", "lat": -40.21028844455214, "lon": 80.1272204942308, "alt_km": 404.1114845689135, "timestamp": "2025-12-22T04:03:37.887820+00:00", "meta": {"OBJECT_NAME": "STARLINK-36042", "OBJECT_ID": "2025-278Y", "EPOCH": "2025-12-21T20:00:01.999008", "MEAN_MOTION": 15.56611309, "ECCENTRICITY": 0.0001052, "INCLINATION": 42.9987, "RA_OF_ASC_NODE": 196.9804, "ARG_OF_PERICENTER": 272.4436, "MEAN_ANOMALY": 255.5059, "EPHEMERIS_TYPE": 0, "CLASSIFICATION_TYPE": "U", "NORAD_CAT_ID": 66813, "ELEMENT_SET_NO": 999, "REV_AT_EPOCH": 442, "BSTAR": -0.031331, "MEAN_MOTION_DOT": -0.02044183, "MEAN_MOTION_DDOT": 0}, "tle": {"line1": "1 66813U 25278Y   25355.83335647 -.02044183  00000+0 -31331-1 0  9992", "line2": "2 66813  42.9987 196.9804 0001052 272.4436 255.5059 15.56611309  4426"}}, "geometry": {"type": "Point", "coordinates": [80.1272204942308, -40.21028844455214]}}, {"type": "Feature", "properties": {"norad_id": 66814, "name": "STARLINK-35984", "group": "last-30-days", "lat": -42.553534389340236, "lon": 95.10798481206793, "alt_km": 403.99323088783876, "timestamp": "2025-12-22T04:03:37.887832+00:00", "meta": {"OBJECT_NAME": "STARLINK-35984", "OBJECT_ID": "2025-278Z", "EPOCH": "2025-12-21T20:00:01.999008", "MEAN_MOTION": 15.5660742, "ECCENTRICITY": 0.0001272, "INCLINATION": 42.9993, "RA_OF_ASC_NODE": 196.9511, "ARG_OF_PERICENTER": 265.2746, "MEAN_ANOMALY": 274.1767, "EPHEMERIS_TYPE": 0, "CLASSIFICATION_TYPE": "U", "NORAD_CAT_ID": 66814, "ELEMENT_SET_NO": 999, "REV_AT_EPOCH": 450, "BSTAR": -0.03122, "MEAN_MOTION_DOT": -0.02037556, "MEAN_MOTION_DDOT": 0}, "tle": {"line1": "1 66814U 25278Z   25355.83335647 -.02037556  00000+0 -31220-1 0  9996", "line2": "2 66814  42.9993 196.9511 0001272 265.2746 274.1767 15.56607420  4508"}}, "geometry": {"type": "Point", "coordinates": [95.10798481206793, -42.553534389340236]}}, {"type": "Feature", "properties": {"norad_id": 66815, "name": "STARLINK-35985", "group": "last-30-days", "lat": -42.30107730601723, "lon": 92.54151159369765, "alt_km": 403.97459421591066, "timestamp": "2025-12-22T04:03:37.887844+00:00", "meta": {"OBJECT_NAME": "STARLINK-35985", "OBJECT_ID": "2025-278AA", "EPOCH": "2025-12-21T20:00:01.999008", "MEAN_MOTION": 15.56609427, "ECCENTRICITY": 0.0001291, "INCLINATION": 42.9992, "RA_OF_ASC_NODE": 196.9557, "ARG_OF_PERICENTER": 265.4097, "MEAN_ANOMALY": 272.1242, "EPHEMERIS_TYPE": 0, "CLASSIFICATION_TYPE": "U", "NORAD_CAT_ID": 66815, "ELEMENT_SET_NO": 999, "REV_AT_EPOCH": 450, "BSTAR": -0.031283, "MEAN_MOTION_DOT": -0.02041389, "MEAN_MOTION_DDOT": 0}, "tle": {"line1": "1 66815U 25278AA  25355.83335647 -.02041389  00000+0 -31283-1 0  9995", "line2": "2 66815  42.9992 196.9557 0001291 265.4097 272.1242 15.56609427  4505"}}, "geometry": {"type": "Point", "coordinates": [92.54151159369765, -42.30107730601723]}}, {"type": "Feature", "properties": {"norad_id": 66816, "name": "STARLINK-36098", "group": "last-30-days", "lat": -40.73444314118008, "lon": 82.5442083018896, "alt_km": 404.0783503376797, "timestamp": "2025-12-22T04:03:37.887855+00:00", "meta": {"OBJECT_NAME": "STARLINK-36098", "OBJECT_ID": "2025-278AB", "EPOCH": "2025-12-21T20:00:01.999008", "MEAN_MOTION": 15.56614795, "ECCENTRICITY": 0.0001101, "INCLINATION": 42.9988, "RA_OF_ASC_NODE": 196.9756, "ARG_OF_PERICENTER": 269.9678, "MEAN_ANOMALY": 259.8972, "EPHEMERIS_TYPE": 0, "CLASSIFICATION_TYPE": "U", "NORAD_CAT_ID": 66816, "ELEMENT_SET_NO": 999, "REV_AT_EPOCH": 426, "BSTAR": -0.031413, "MEAN_MOTION_DOT": -0.02049205, "MEAN_MOTION_DDOT": 0}, "tle": {"line1": "1 66816U 25278AB  25355.83335647 -.02049205  00000+0 -31413-1 0  9996", "line2": "2 66816  42.9988 196.9756 0001101 269.9678 259.8972 15.56614795  4265"}}, "geometry": {"type": "Point", "coordinates": [82.5442083018896, -40.73444314118008]}}, {"type": "Feature", "properties": {"norad_id": 66817, "name": "STARLINK-35995", "group": "last-30-days", "lat": -41.62647614943145, "lon": 87.48162212867412, "alt_km": 403.99948707994827, "timestamp": "2025-12-22T04:03:37.887866+00:00", "meta": {"OBJECT_NAME": "STARLINK-35995", "OBJECT_ID": "2025-278AC", "EPOCH": "2025-12-21T20:00:01.999008", "MEAN_MOTION": 15.56614187, "ECCENTRICITY": 0.0001234, "INCLINATION": 42.999, "RA_OF_ASC_NODE": 196.9657, "ARG_OF_PERICENTER": 267.5212, "MEAN_ANOMALY": 266.1765, "EPHEMERIS_TYPE": 0, "CLASSIFICATION_TYPE": "U", "NORAD_CAT_ID": 66817, "ELEMENT_SET_NO": 999, "REV_AT_EPOCH": 442, "BSTAR": -0.031381, "MEAN_MOTION_DOT": -0.02047401, "MEAN_MOTION_DDOT": 0}, "tle": {"line1": "1 66817U 25278AC  25355.83335647 -.02047401  00000+0 -31381-1 0  9997", "line2": "2 66817  42.9990 196.9657 0001234 267.5212 266.1765 15.56614187  4428"}}, "geometry": {"type": "Point", "coordinates": [87.48162212867412, -41.62647614943145]}}, {"type": "Feature", "properties": {"norad_id": 66818, "name": "STARLINK-35994", "group": "last-30-days", "lat": -41.20670518393905, "lon": 84.99581727968446, "alt_km": 403.9530627114809, "timestamp": "2025-12-22T04:03:37.887879+00:00", "meta": {"OBJECT_NAME": "STARLINK-35994", "OBJECT_ID": "2025-278AD", "EPOCH": "2025-12-21T20:00:01.999008", "MEAN_MOTION": 15.56611924, "ECCENTRICITY": 0.0001295, "INCLINATION": 42.9988, "RA_OF_ASC_NODE": 196.9711, "ARG_OF_PERICENTER": 267.7697, "MEAN_ANOMALY": 264.0132, "EPHEMERIS_TYPE": 0, "CLASSIFICATION_TYPE": "U", "NORAD_CAT_ID": 66818, "ELEMENT_SET_NO": 999, "REV_AT_EPOCH": 442, "BSTAR": -0.031359, "MEAN_MOTION_DOT": -0.02046029, "MEAN_MOTION_DDOT": 0}, "tle": {"line1": "1 66818U 25278AD  25355.83335647 -.02046029  00000+0 -31359-1 0  9998", "line2": "2 66818  42.9988 196.9711 0001295 267.7697 264.0132 15.56611924  4424"}}, "geometry": {"type": "Point", "coordinates": [84.99581727968446, -41.20670518393905]}}, {"type": "Feature", "properties": {"norad_id": 66819, "name": "STARLINK-35989", "group": "last-30-days", "lat": -41.991370746071226, "lon": 89.99720731338917, "alt_km": 403.9766579607103, "timestamp": "2025-12-22T04:03:37.887889+00:00", "meta": {"OBJECT_NAME": "STARLINK-35989", "OBJECT_ID": "2025-278AE", "EPOCH": "2025-12-21T20:00:01.999008", "MEAN_MOTION": 15.56610816, "ECCENTRICITY": 0.0001298, "INCLINATION": 42.9989, "RA_OF_ASC_NODE": 196.9605, "ARG_OF_PERICENTER": 269.7611, "MEAN_ANOMALY": 265.8564, "EPHEMERIS_TYPE": 0, "CLASSIFICATION_TYPE": "U", "NORAD_CAT_ID": 66819, "ELEMENT_SET_NO": 999, "REV_AT_EPOCH": 442, "BSTAR": -0.031327, "MEAN_MOTION_DOT": -0.02044053, "MEAN_MOTION_DDOT": 0}, "tle": {"line1": "1 66819U 25278AE  25355.83335647 -.02044053  00000+0 -31327-1 0  9999", "line2": "2 66819  42.9989 196.9605 0001298 269.7611 265.8564 15.56610816  4426"}}, "geometry": {"type": "Point", "coordinates": [89.99720731338917, -41.991370746071226]}}]}